{
  "norad_id": 60275,
  "name": "STARLINK-32152",
  "history": [
    {
      "epoch": "2026-03-28T21:42:09.570816Z",
      "apogee_km": 476.0416277550421,
      "perigee_km": 474.48974325093604,
      "latitude_deg": -7.012272192953947e-06,
      "longitude_deg": 171.09398393167504,
      "height_km": 476.224692922342,
      "semi_major_axis_km": 6853.402685502989,
      "eccentricity": 0.00011322,
      "inclination_deg": 53.1611,
      "raan_deg": 322.9519,
      "arg_perigee_deg": 94.4814,
      "mean_anomaly_deg": 265.6316,
      "mean_motion_rev_day": 15.30183048
    },
    {
      "epoch": "2026-03-28T23:16:12.620928Z",
      "apogee_km": 476.01951370326424,
      "perigee_km": 474.4747609187134,
      "latitude_deg": -6.19315742715898e-05,
      "longitude_deg": 147.21395868197249,
      "height_km": 476.17860318935624,
      "semi_major_axis_km": 6853.384137310988,
      "eccentricity": 0.0001127,
      "inclination_deg": 53.1614,
      "raan_deg": 322.649,
      "arg_perigee_deg": 92.4517,
      "mean_anomaly_deg": 267.6612,
      "mean_motion_rev_day": 15.3018926
    },
    {
      "epoch": "2026-03-30T00:21:03.442752Z",
      "apogee_km": 476.01556901367803,
      "perigee_km": 474.45985295428454,
      "latitude_deg": -5.9902176136916465e-06,
      "longitude_deg": 125.11721207993607,
      "height_km": 476.2635693814812,
      "semi_major_axis_km": 6853.374710983981,
      "eccentricity": 0.0001135,
      "inclination_deg": 53.1615,
      "raan_deg": 317.794,
      "arg_perigee_deg": 99.4282,
      "mean_anomaly_deg": 260.6847,
      "mean_motion_rev_day": 15.30192417
    },
    {
      "epoch": "2026-03-30T00:21:03.443616Z",
      "apogee_km": 476.0154319461835,
      "perigee_km": 474.45999002177814,
      "latitude_deg": -4.169191081357699e-06,
      "longitude_deg": 125.11720982674879,
      "height_km": 476.2635469285725,
      "semi_major_axis_km": 6853.374710983981,
      "eccentricity": 0.00011348,
      "inclination_deg": 53.1615,
      "raan_deg": 317.794,
      "arg_perigee_deg": 99.4282,
      "mean_anomaly_deg": 260.6847,
      "mean_motion_rev_day": 15.30192417
    },
    {
      "epoch": "2026-03-30T08:11:19.825152Z",
      "apogee_km": 476.0412914203789,
      "perigee_km": 474.471179030189,
      "latitude_deg": 1.8518012585934407e-06,
      "longitude_deg": 5.709867841671518,
      "height_km": 476.2932267405111,
      "semi_major_axis_km": 6853.393235225284,
      "eccentricity": 0.00011455,
      "inclination_deg": 53.1617,
      "raan_deg": 316.2768,
      "arg_perigee_deg": 100.1649,
      "mean_anomaly_deg": 259.9481,
      "mean_motion_rev_day": 15.30186213
    },
    {
      "epoch": "2026-03-30T20:43:44.957856Z",
      "apogee_km": 476.0046331982794,
      "perigee_km": 474.4678327845122,
      "latitude_deg": 1.7658970115429387e-05,
      "longitude_deg": 174.66274819992014,
      "height_km": 476.2846982766875,
      "semi_major_axis_km": 6853.3732329913955,
      "eccentricity": 0.00011212,
      "inclination_deg": 53.1613,
      "raan_deg": 313.8494,
      "arg_perigee_deg": 101.2591,
      "mean_anomaly_deg": 258.8536,
      "mean_motion_rev_day": 15.30192912
    },
    {
      "epoch": "2026-03-31T13:58:20.669088Z",
      "apogee_km": 476.05358052391784,
      "perigee_km": 474.4485170428925,
      "latitude_deg": 1.8926322469440972e-06,
      "longitude_deg": -88.03041461371355,
      "height_km": 476.31779234485396,
      "semi_major_axis_km": 6853.388048783405,
      "eccentricity": 0.0001171,
      "inclination_deg": 53.1613,
      "raan_deg": 310.5132,
      "arg_perigee_deg": 102.1103,
      "mean_anomaly_deg": 258.0029,
      "mean_motion_rev_day": 15.3018795
    },
    {
      "epoch": "2026-04-01T21:19:24.345408Z",
      "apogee_km": 476.06760093649336,
      "perigee_km": 474.3967495315719,
      "latitude_deg": 9.497660035321778e-06,
      "longitude_deg": 154.34983404425904,
      "height_km": 476.3429896002995,
      "semi_major_axis_km": 6853.369175234033,
      "eccentricity": 0.0001219,
      "inclination_deg": 53.1612,
      "raan_deg": 304.4463,
      "arg_perigee_deg": 104.7353,
      "mean_anomaly_deg": 255.3783,
      "mean_motion_rev_day": 15.30194271
    },
    {
      "epoch": "2026-04-02T20:50:11.780160Z",
      "apogee_km": 475.97447650262075,
      "perigee_km": 474.45755534607633,
      "latitude_deg": -4.251130969420429e-05,
      "longitude_deg": 156.13449940122908,
      "height_km": 476.1039273709786,
      "semi_major_axis_km": 6853.353015924348,
      "eccentricity": 0.00011067,
      "inclination_deg": 53.1603,
      "raan_deg": 299.8943,
      "arg_perigee_deg": 89.2125,
      "mean_anomaly_deg": 270.9002,
      "mean_motion_rev_day": 15.30199683
    },
    {
      "epoch": "2026-04-03T18:46:57.656928Z",
      "apogee_km": 476.00024493783076,
      "perigee_km": 474.5171701067229,
      "latitude_deg": -1.975693215129089e-05,
      "longitude_deg": -178.20553016411625,
      "height_km": 476.0942720435724,
      "semi_major_axis_km": 6853.395707522277,
      "eccentricity": 0.0001082,
      "inclination_deg": 53.1604,
      "raan_deg": 295.6467,
      "arg_perigee_deg": 85.1409,
      "mean_anomaly_deg": 274.9715,
      "mean_motion_rev_day": 15.30185385
    },
    {
      "epoch": "2026-04-04T19:51:45.348480Z",
      "apogee_km": 475.9298032338147,
      "perigee_km": 474.33984417071497,
      "latitude_deg": -9.599287843864928e-07,
      "longitude_deg": 159.71157275546426,
      "height_km": 475.9557864753094,
      "semi_major_axis_km": 6853.271823702265,
      "eccentricity": 0.000116,
      "inclination_deg": 53.1603,
      "raan_deg": 290.7925,
      "arg_perigee_deg": 84.419,
      "mean_anomaly_deg": 275.6943,
      "mean_motion_rev_day": 15.30226876
    },
    {
      "epoch": "2026-04-05T13:06:22.306464Z",
      "apogee_km": 475.94076223034335,
      "perigee_km": 474.5506220850666,
      "latitude_deg": 5.4064895492621404e-05,
      "longitude_deg": -102.99084845657015,
      "height_km": 476.2164262903268,
      "semi_major_axis_km": 6853.382692157705,
      "eccentricity": 0.00010142,
      "inclination_deg": 53.1604,
      "raan_deg": 287.4522,
      "arg_perigee_deg": 95.9686,
      "mean_anomaly_deg": 264.1431,
      "mean_motion_rev_day": 15.30189744
    },
    {
      "epoch": "2026-04-05T19:22:36.192576Z",
      "apogee_km": 476.1131528883343,
      "perigee_km": 474.45873658947403,
      "latitude_deg": 1.1336631861726357e-05,
      "longitude_deg": 161.48233917480903,
      "height_km": 476.078151084263,
      "semi_major_axis_km": 6853.422944738903,
      "eccentricity": 0.0001207,
      "inclination_deg": 53.1604,
      "raan_deg": 286.2408,
      "arg_perigee_deg": 82.6376,
      "mean_anomaly_deg": 277.4762,
      "mean_motion_rev_day": 15.30176263
    },
    {
      "epoch": "2026-04-05T22:30:42.593472Z",
      "apogee_km": 476.1350267793732,
      "perigee_km": 474.43099242818516,
      "latitude_deg": -9.347928389407543e-06,
      "longitude_deg": 113.72019868173808,
      "height_km": 476.078753399489,
      "semi_major_axis_km": 6853.420009603778,
      "eccentricity": 0.00012432,
      "inclination_deg": 53.1604,
      "raan_deg": 285.6341,
      "arg_perigee_deg": 83.096,
      "mean_anomaly_deg": 277.0182,
      "mean_motion_rev_day": 15.30177246
    },
    {
      "epoch": "2026-04-06T22:01:29.783712Z",
      "apogee_km": 476.085010709402,
      "perigee_km": 474.3127380522865,
      "latitude_deg": -4.711471015063972e-06,
      "longitude_deg": 115.50742469872368,
      "height_km": 476.00433792139285,
      "semi_major_axis_km": 6853.335874380844,
      "eccentricity": 0.0001293,
      "inclination_deg": 53.1604,
      "raan_deg": 281.0836,
      "arg_perigee_deg": 83.9993,
      "mean_anomaly_deg": 276.1155,
      "mean_motion_rev_day": 15.30205424
    },
    {
      "epoch": "2026-04-07T18:24:09.916416Z",
      "apogee_km": 476.1336724662933,
      "perigee_km": 474.3189018678504,
      "latitude_deg": -7.291522611292796e-05,
      "longitude_deg": 165.06106472256067,
      "height_km": 476.0494316277831,
      "semi_major_axis_km": 6853.363287167072,
      "eccentricity": 0.0001324,
      "inclination_deg": 53.1604,
      "raan_deg": 277.1414,
      "arg_perigee_deg": 85.2641,
      "mean_anomaly_deg": 274.851,
      "mean_motion_rev_day": 15.30196243
    },
    {
      "epoch": "2026-04-08T11:38:47.621760Z",
      "apogee_km": 475.9825654124943,
      "perigee_km": 474.5976248651086,
      "latitude_deg": -2.005873284067192e-05,
      "longitude_deg": -97.64108167084498,
      "height_km": 476.1435965211408,
      "semi_major_axis_km": 6853.427095138801,
      "eccentricity": 0.00010104,
      "inclination_deg": 53.161,
      "raan_deg": 273.8045,
      "arg_perigee_deg": 86.2716,
      "mean_anomaly_deg": 273.84,
      "mean_motion_rev_day": 15.30174873
    },
    {
      "epoch": "2026-04-08T21:03:06.022656Z",
      "apogee_km": 475.9676772159164,
      "perigee_km": 474.5394306244798,
      "latitude_deg": -5.5474131685978205e-06,
      "longitude_deg": 119.07500333149343,
      "height_km": 476.1312894521821,
      "semi_major_axis_km": 6853.390553920198,
      "eccentricity": 0.0001042,
      "inclination_deg": 53.1604,
      "raan_deg": 271.9835,
      "arg_perigee_deg": 88.3399,
      "mean_anomaly_deg": 271.7721,
      "mean_motion_rev_day": 15.30187111
    },
    {
      "epoch": "2026-04-10T04:24:09.966816Z",
      "apogee_km": 476.02646918362007,
      "perigee_km": 474.50706956794966,
      "latitude_deg": -4.442481316040799e-05,
      "longitude_deg": 1.4528928946577395,
      "height_km": 476.269614000345,
      "semi_major_axis_km": 6853.403769375785,
      "eccentricity": 0.00011085,
      "inclination_deg": 53.1597,
      "raan_deg": 265.9154,
      "arg_perigee_deg": 97.9117,
      "mean_anomaly_deg": 262.2009,
      "mean_motion_rev_day": 15.30182685
    }
  ]
}